OBJECT_NAME,OBJECT_ID,EPOCH,MEAN_MOTION,ECCENTRICITY,INCLINATION,RA_OF_ASC_NODE,ARG_OF_PERICENTER,MEAN_ANOMALY,EPHEMERIS_TYPE,CLASSIFICATION_TYPE,NORAD_CAT_ID,ELEMENT_SET_NO,REV_AT_EPOCH,BSTAR,MEAN_MOTION_DOT,MEAN_MOTION_DDOT
BEIDOU-2 IGSO-5 (C10),2011-073A,2026-07-02T17:30:18.330912,1.00270596,.01145273,47.6496,271.3544,222.0502,141.5350,0,U,37948,999,5329,0,-.128E-5,0
LUCH 5A (SDCM/PRN 140),2011-074B,2026-07-15T10:44:29.613408,1.00273119,.0002635,8.8235,73.3905,60.7728,127.2423,0,U,37951,999,5333,0,-.64E-6,0
BEIDOU-2 G5 (C05),2012-008A,2026-07-16T03:20:11.133600,1.00270511,.00073103,3.6439,69.5081,268.4025,64.7668,0,U,38091,999,5265,0,.45E-6,0
BEIDOU-2 M3 (C11),2012-018A,2026-07-16T04:25:36.797952,1.86229721,.00209696,55.7312,303.8981,272.3216,87.4681,0,U,38250,999,9648,0,-.76E-6,0
BEIDOU-2 M4 (C12),2012-018B,2026-07-16T02:48:11.738592,1.86229294,.00121215,55.6313,303.1119,272.2752,87.6168,0,U,38251,999,9648,0,-.75E-6,0
SES-5 (EGNOS/PRN 136),2012-036A,2026-07-16T06:30:03.141216,1.00271516,.00019742,0.0442,323.5427,149.5625,283.4877,0,U,38652,999,4474,0,.23E-6,0
BEIDOU-2 M6 (C14),2012-050B,2026-07-15T19:50:00.704256,1.86230913,.00128901,56.5693,61.9476,1.6971,358.3817,0,U,38775,999,9384,0,-.44E-6,0
GSAT-10 (GAGAN/PRN 128),2012-051B,2026-07-16T03:27:02.975616,1.00272749,.00074164,0.0887,264.5677,189.6747,334.4892,0,U,38779,999,5038,0,-.175E-5,0
GPS BIIF-3  (PRN 24),2012-053A,2026-07-14T17:41:43.071648,2.00567894,.01819929,53.5896,142.4706,66.2134,295.6400,0,U,38833,999,9999,0,.2E-7,0
GSAT0103 (GALILEO-FM3),2012-055A,2026-07-13T06:51:10.050336,1.70473329,.0003756,55.8215,100.8292,311.8113,48.1723,0,U,38857,999,8545,0,-.3E-6,0
BEIDOU-2 G6 (C02),2012-059A,2026-07-16T03:46:38.668800,1.00273526,.00087027,4.4924,73.2036,327.0851,34.3553,0,U,38953,999,5020,0,-.188E-5,0
LUCH 5B (SDCM/PRN 125),2012-061A,2026-07-16T00:44:24.009216,1.00270317,.00039004,10.5443,49.5899,147.2991,91.7999,0,U,38977,999,4989,0,-.152E-5,0
COSMOS 2485 (747),2013-019A,2026-07-15T01:34:27.472800,2.13103174,.00226531,65.4351,72.6696,231.1274,128.7466,0,U,39155,999,10287,0,-.9E-7,0
GPS BIIF-4  (PRN 27),2013-023A,2026-07-15T14:27:10.507680,2.00563312,.0141388,54.4824,267.8149,51.1134,310.2184,0,U,39166,999,9645,0,-.9E-7,0
IRNSS-1A,2013-034A,2026-07-10T17:17:25.712736,1.00281941,.0017567,35.7704,63.5328,183.4462,356.2994,0,U,39199,999,4760,0,.47E-6,0
GPS BIIF-5  (PRN 30),2014-008A,2026-07-15T14:29:46.846752,2.00561577,.0084091,53.6578,148.1607,231.5484,127.6542,0,U,39533,999,9025,0,.11E-6,0
ASTRA 5B (EGNOS/PRN 123),2014-011B,2026-07-16T06:35:25.127232,1.00268607,.00018922,0.0744,303.0661,177.8815,295.4830,0,U,39617,999,4495,0,.126E-5,0
COSMOS 2492 (754),2014-012A,2026-07-14T13:19:26.928192,2.13103205,.0010322,65.2800,313.0063,317.7862,42.1441,0,U,39620,999,9582,0,-.62E-6,0
IRNSS-1B,2014-017A,2026-07-15T17:03:00.572256,1.00275936,.00222843,28.8748,239.9111,191.7753,172.7664,0,U,39635,999,4508,0,.127E-5,0
LUCH 5V (SDCM/PRN 141),2014-023A,2026-07-16T01:47:42.376992,1.00273314,.00020754,5.2020,69.4371,85.2878,260.8375,0,U,39727,999,4464,0,-.282E-5,0
GPS BIIF-6  (PRN 06),2014-026A,2026-07-15T09:09:21.973248,2.00558840,.00381411,56.4831,330.4202,325.7796,33.9711,0,U,39741,999,8910,0,-.95E-6,0
COSMOS 2500 (755),2014-032A,2026-07-15T04:39:07.763040,2.13105781,.0008262,65.2146,312.7295,190.4247,169.5708,0,U,40001,999,9405,0,-.61E-6,0
GPS BIIF-7  (PRN 09),2014-045A,2026-07-14T23:23:28.311936,2.00560212,.0034406,55.3710,87.3578,118.3743,242.0239,0,U,40105,999,8663,0,-.25E-6,0
GSAT0201 (GALILEO 5),2014-050A,2026-07-15T10:39:36.116064,1.85519399,.16786554,48.8437,272.2762,180.5299,179.3301,0,U,40128,999,7884,0,-.31E-6,0
GSAT0202 (GALILEO 6),2014-050B,2026-07-14T01:59:01.990752,1.85520425,.1679589,48.8629,271.4179,181.1559,178.4672,0,U,40129,999,8098,0,-.18E-6,0
IRNSS-1C,2014-061A,2026-07-15T19:57:21.752928,1.00272233,.00220694,6.5880,88.3869,5.5373,222.1370,0,U,40269,999,4297,0,-.176E-5,0
GPS BIIF-8  (PRN 03),2014-068A,2026-07-14T20:13:45.283872,2.00553162,.00674067,57.0066,29.8902,72.2885,288.4955,0,U,40294,999,8576,0,-.65E-6,0
COSMOS 2501 (702K),2014-075A,2026-07-14T01:09:44.871264,2.13101105,.0022586,63.6185,189.4424,212.6579,147.2095,0,U,40315,999,9042,0,.65E-6,0
GPS BIIF-9  (PRN 26),2015-013A,2026-07-15T23:33:30.931200,2.00549601,.0110386,53.1660,202.9866,40.3901,320.4392,0,U,40534,999,8240,0,.42E-6,0
GSAT0203 (GALILEO 7),2015-017A,2026-07-14T18:46:19.723008,1.70476177,.00026409,56.7770,340.8444,255.9596,103.9964,0,U,40544,999,6967,0,-.99E-6,0
GSAT0204 (GALILEO 8),2015-017B,2026-07-15T00:54:46.748448,1.70475668,.00028058,56.7833,340.8561,234.5634,125.3958,0,U,40545,999,3272,0,-.1E-5,0
